{"type": "FeatureCollection", "features": [ {"type": "Feature", "properties": {"norad_id": 38552, "name": "METEOSAT-10 (MSG-3)", "group": "weather", "lat": 4.094044938991132, "lon": 167.9301164138247, "alt_km": 35786.93406609672, "timestamp": "2025-12-23T05:02:11.666663+00:00", "meta": {"OBJECT_NAME": "METEOSAT-10 (MSG-3)", "OBJECT_ID": "2012-035B", "EPOCH": "2025-12-22T08:01:52.620384", "MEAN_MOTION": 1.00276829, "ECCENTRICITY": 7.196e-05, "INCLINATION": 4.2497, "RA_OF_ASC_NODE": 61.6967, "ARG_OF_PERICENTER": 266.0404, "MEAN_ANOMALY": 244.1977, "EPHEMERIS_TYPE": 0, "CLASSIFICATION_TYPE": "U", "NORAD_CAT_ID": 38552, "ELEMENT_SET_NO": 999, "REV_AT_EPOCH": 4908, "BSTAR": 0, "MEAN_MOTION_DOT": 1.6e-07, "MEAN_MOTION_DDOT": 0}, "tle": {"line1": "1 38552U 12035B   25356.33463681  .00000016  00000+0  00000+0 0  9994", "line2": "2 38552   4.2497  61.6967 0000719 266.0404 244.1977  1.00276829 49085"}}, "geometry": {"type": "Point", "coordinates": [167.9301164138247, 4.094044938991132]}}, {"type": "Feature", "properties": {"norad_id": 38771, "name": "METOP-B", "group": "weather", "lat": -6.126571745260327, "lon": 47.92968911004205, "alt_km": 825.689044060995, "timestamp": "2025-12-23T05:02:11.666674+00:00", "meta": {"OBJECT_NAME": "METOP-B", "OBJECT_ID": "2012-049A", "EPOCH": "2025-12-22T22:18:28.812096", "MEAN_MOTION": 14.21412182, "ECCENTRICITY": 0.00032233, "INCLINATION": 98.6784, "RA_OF_ASC_NODE": 46.7148, "ARG_OF_PERICENTER": 122.7046, "MEAN_ANOMALY": 237.4442, "EPHEMERIS_TYPE": 0, "CLASSIFICATION_TYPE": "U", "NORAD_CAT_ID": 38771, "ELEMENT_SET_NO": 999, "REV_AT_EPOCH": 68822, "BSTAR": 8.7303164e-05, "MEAN_MOTION_DOT": 1.47e-06, "MEAN_MOTION_DDOT": 0}, "tle": {"line1": "1 38771U 12049A   25356.92950014  .00000147  00000+0  87303-4 0  9999", "line2": "2 38771  98.6784  46.7148 0003223 122.7046 237.4442 14.21412182688220"}}, "geometry": {"type": "Point", "coordinates": [47.92968911004205, -6.126571745260327]}}, {"type": "Feature", "properties": {"norad_id": 39216, "name": "INSAT-3D", "group": "weather", "lat": -0.8069107930036089, "lon": -62.92548020415616, "alt_km": 35781.045226587186, "timestamp": "2025-12-23T05:02:11.666686+00:00", "meta": {"OBJECT_NAME": "INSAT-3D", "OBJECT_ID": "2013-038B", "EPOCH": "2025-12-22T18:54:58.881600", "MEAN_MOTION": 1.00275767, "ECCENTRICITY": 0.00018373, "INCLINATION": 1.4692, "RA_OF_ASC_NODE": 84.8853, "ARG_OF_PERICENTER": 153.7134, "MEAN_ANOMALY": 266.2463, "EPHEMERIS_TYPE": 0, "CLASSIFICATION_TYPE": "U", "NORAD_CAT_ID": 39216, "ELEMENT_SET_NO": 999, "REV_AT_EPOCH": 4531, "BSTAR": 0, "MEAN_MOTION_DOT": -3.18e-06, "MEAN_MOTION_DDOT": 0}, "tle": {"line1": "1 39216U 13038B   25356.78818150 -.00000318  00000+0  00000+0 0  9996", "line2": "2 39216   1.4692  84.8853 0001837 153.7134 266.2463  1.00275767 45311"}}, "geometry": {"type": "Point", "coordinates": [-62.92548020415616, -0.8069107930036089]}}, {"type": "Feature", "properties": {"norad_id": 39260, "name": "FENGYUN 3C", "group": "weather", "lat": 25.238923240525356, "lon": -29.653044222307557, "alt_km": 847.3187021917056, "timestamp": "2025-12-23T05:02:11.666697+00:00", "meta": {"OBJECT_NAME": "FENGYUN 3C", "OBJECT_ID": "2013-052A", "EPOCH": "2025-12-22T22:07:51.816000", "MEAN_MOTION": 14.15699239, "ECCENTRICITY": 0.00148404, "INCLINATION": 98.4775, "RA_OF_ASC_NODE": 334.1048, "ARG_OF_PERICENTER": 166.5632, "MEAN_ANOMALY": 193.5941, "EPHEMERIS_TYPE": 0, "CLASSIFICATION_TYPE": "U", "NORAD_CAT_ID": 39260, "ELEMENT_SET_NO": 999, "REV_AT_EPOCH": 63362, "BSTAR": 7.126546e-05, "MEAN_MOTION_DOT": 9.9e-07, "MEAN_MOTION_DDOT": 0}, "tle": {"line1": "1 39260U 13052A   25356.92212750  .00000099  00000+0  71265-4 0  9992", "line2": "2 39260  98.4775 334.1048 0014840 166.5632 193.5941 14.15699239633622"}}, "geometry": {"type": "Point", "coordinates": [-29.653044222307557, 25.238923240525356]}}, {"type": "Feature", "properties": {"norad_id": 40069, "name": "METEOR-M 2", "group": "weather", "lat": -40.89422503354344, "lon": 146.95947641863404, "alt_km": 824.3421827607226, "timestamp": "2025-12-23T05:02:11.666709+00:00", "meta": {"OBJECT_NAME": "METEOR-M 2", "OBJECT_ID": "2014-037A", "EPOCH": "2025-12-22T22:55:48.771840", "MEAN_MOTION": 14.21389149, "ECCENTRICITY": 0.00055219, "INCLINATION": 98.491, "RA_OF_ASC_NODE": 334.1483, "ARG_OF_PERICENTER": 177.4682, "MEAN_ANOMALY": 182.6525, "EPHEMERIS_TYPE": 0, "CLASSIFICATION_TYPE": "U", "NORAD_CAT_ID": 40069, "ELEMENT_SET_NO": 999, "REV_AT_EPOCH": 59428, "BSTAR": -6.8363468e-05, "MEAN_MOTION_DOT": -1.91e-06, "MEAN_MOTION_DDOT": 0}, "tle": {"line1": "1 40069U 14037A   25356.95542560 -.00000191  00000+0 -68363-4 0  9993", "line2": "2 40069  98.4910 334.1483 0005521 177.4682 182.6525 14.21389149594285"}}, "geometry": {"type": "Point", "coordinates": [146.95947641863404, -40.89422503354344]}}, {"type": "Feature", "properties": {"norad_id": 40267, "name": "HIMAWARI-8", "group": "weather", "lat": 0.005207941719788223, "lon": -51.78794526114729, "alt_km": 35782.56043666171, "timestamp": "2025-12-23T05:02:11.666721+00:00", "meta": {"OBJECT_NAME": "HIMAWARI-8", "OBJECT_ID": "2014-060A", "EPOCH": "2025-12-22T15:32:48.240384", "MEAN_MOTION": 1.00272386, "ECCENTRICITY": 8.095e-05, "INCLINATION": 0.0463, "RA_OF_ASC_NODE": 219.1535, "ARG_OF_PERICENTER": 86.467, "MEAN_ANOMALY": 159.6952, "EPHEMERIS_TYPE": 0, "CLASSIFICATION_TYPE": "U", "NORAD_CAT_ID": 40267, "ELEMENT_SET_NO": 999, "REV_AT_EPOCH": 4099, "BSTAR": 0, "MEAN_MOTION_DOT": -2.54e-06, "MEAN_MOTION_DDOT": 0}, "tle": {"line1": "1 40267U 14060A   25356.64778056 -.00000254  00000+0  00000+0 0  9994", "line2": "2 40267   0.0463 219.1535 0000809  86.4670 159.6952  1.00272386 40996"}}, "geometry": {"type": "Point", "coordinates": [-51.78794526114729, 0.005207941719788223]}}, {"type": "Feature", "properties": {"norad_id": 40367, "name": "FENGYUN 2G", "group": "weather", "lat": -1.076546160291358, "lon": -93.33115780194967, "alt_km": 35778.48926521124, "timestamp": "2025-12-23T05:02:11.666733+00:00", "meta": {"OBJECT_NAME": "FENGYUN 2G", "OBJECT_ID": "2014-090A", "EPOCH": "2025-12-22T18:46:22.206144", "MEAN_MOTION": 1.00260244, "ECCENTRICITY": 0.00026548, "INCLINATION": 5.192, "RA_OF_ASC_NODE": 74.9826, "ARG_OF_PERICENTER": 203.0089, "MEAN_ANOMALY": 194.3715, "EPHEMERIS_TYPE": 0, "CLASSIFICATION_TYPE": "U", "NORAD_CAT_ID": 40367, "ELEMENT_SET_NO": 999, "REV_AT_EPOCH": 4023, "BSTAR": 0, "MEAN_MOTION_DOT": -2.79e-06, "MEAN_MOTION_DDOT": 0}, "tle": {"line1": "1 40367U 14090A   25356.78220146 -.00000279  00000+0  00000+0 0  9992", "line2": "2 40367   5.1920  74.9826 0002654 203.0089 194.3715  1.00260244 40232"}}, "geometry": {"type": "Point", "coordinates": [-93.33115780194967, -1.076546160291358]}}, {"type": "Feature", "properties": {"norad_id": 40732, "name": "METEOSAT-11 (MSG-4)", "group": "weather", "lat": 2.678394004695399, "lon": 176.74726872113, "alt_km": 35783.3075609516, "timestamp": "2025-12-23T05:02:11.666745+00:00", "meta": {"OBJECT_NAME": "METEOSAT-11 (MSG-4)", "OBJECT_ID": "2015-034A", "EPOCH": "2025-12-22T18:20:39.668064", "MEAN_MOTION": 1.0027063, "ECCENTRICITY": 7.694e-05, "INCLINATION": 2.7614, "RA_OF_ASC_NODE": 71.9741, "ARG_OF_PERICENTER": 137.3784, "MEAN_ANOMALY": 166.5656, "EPHEMERIS_TYPE": 0, "CLASSIFICATION_TYPE": "U", "NORAD_CAT_ID": 40732, "ELEMENT_SET_NO": 999, "REV_AT_EPOCH": 544, "BSTAR": 0, "MEAN_MOTION_DOT": 8.1e-07, "MEAN_MOTION_DDOT": 0}, "tle": {"line1": "1 40732U 15034A   25356.76434801  .00000081  00000+0  00000+0 0  9990", "line2": "2 40732   2.7614  71.9741 0000769 137.3784 166.5656  1.00270630  5449"}}, "geometry": {"type": "Point", "coordinates": [176.74726872113, 2.678394004695399]}}, {"type": "Feature", "properties": {"norad_id": 41105, "name": "ELEKTRO-L 2", "group": "weather", "lat": 6.179157719948501, "lon": 152.99270068158077, "alt_km": 35794.319103656875, "timestamp": "2025-12-23T05:02:11.666757+00:00", "meta": {"OBJECT_NAME": "ELEKTRO-L 2", "OBJECT_ID": "2015-074A", "EPOCH": "2025-12-22T21:39:28.130688", "MEAN_MOTION": 1.00272375, "ECCENTRICITY": 0.00035003, "INCLINATION": 6.2496, "RA_OF_ASC_NODE": 72.7074, "ARG_OF_PERICENTER": 208.7357, "MEAN_ANOMALY": 120.6538, "EPHEMERIS_TYPE": 0, "CLASSIFICATION_TYPE": "U", "NORAD_CAT_ID": 41105, "ELEMENT_SET_NO": 999, "REV_AT_EPOCH": 3673, "BSTAR": 0, "MEAN_MOTION_DOT": -9.9e-07, "MEAN_MOTION_DDOT": 0}, "tle": {"line1": "1 41105U 15074A   25356.90240892 -.00000099  00000+0  00000+0 0  9990", "line2": "2 41105   6.2496  72.7074 0003500 208.7357 120.6538  1.00272375 36738"}}, "geometry": {"type": "Point", "coordinates": [152.99270068158077, 6.179157719948501]}}, {"type": "Feature", "properties": {"norad_id": 41752, "name": "INSAT-3DR", "group": "weather", "lat": 0.029481524851673872, "lon": -118.54757948647324, "alt_km": 35734.19204797627, "timestamp": "2025-12-23T05:02:11.666768+00:00", "meta": {"OBJECT_NAME": "INSAT-3DR", "OBJECT_ID": "2016-054A", "EPOCH": "2025-12-22T22:04:33.229056", "MEAN_MOTION": 1.00271553, "ECCENTRICITY": 0.00141985, "INCLINATION": 0.116, "RA_OF_ASC_NODE": 86.2345, "ARG_OF_PERICENTER": 185.5142, "MEAN_ANOMALY": 225.097, "EPHEMERIS_TYPE": 0, "CLASSIFICATION_TYPE": "U", "NORAD_CAT_ID": 41752, "ELEMENT_SET_NO": 999, "REV_AT_EPOCH": 3405, "BSTAR": 0, "MEAN_MOTION_DOT": -5.6e-07, "MEAN_MOTION_DDOT": 0}, "tle": {"line1": "1 41752U 16054A   25356.91982904 -.00000056  00000+0  00000+0 0  9998", "line2": "2 41752   0.1160  86.2345 0014198 185.5142 225.0970  1.00271553 34057"}}, "geometry": {"type": "Point", "coordinates": [-118.54757948647324, 0.029481524851673872]}}]}